{"fetched_at":"2026-03-29T16:36:15Z","count":15609,"tles":[{"name":"STARLINK-3809","line1":"1 52851U 22062X   26087.84656822  .00000135  00000+0  26593-4 0  9994","line2":"2 52851  53.2178 298.1222 0001308  93.9582 266.1560 15.08840327208816","category":"Starlink"}]}