{
  "norad_id": 52851,
  "name": "STARLINK-3809",
  "history": [
    {
      "epoch": "2026-03-28T20:19:03.494208",
      "apogee_km": 540.6475939742122,
      "perigee_km": 538.8371849379919,
      "latitude_deg": -42.62132025224886,
      "longitude_deg": -93.62945087975822,
      "semi_major_axis_km": 6917.879389456102,
      "eccentricity": 0.00013085,
      "inclination_deg": 53.2178,
      "raan_deg": 298.1222,
      "arg_perigee_deg": 93.9582,
      "mean_anomaly_deg": 266.156,
      "mean_motion_rev_day": 15.08840327
    }
  ]
}